ONEWEB-0289             
1 49079U 21075E   23307.17237764  .00000069  00000+0  14436-3 0  9991
2 49079  87.9259 196.0964 0001746  71.2208 288.9113 13.17648306109140
ONEWEB-0290             
1 49080U 21075F   23306.92768978  .00000057  00000+0  11289-3 0  9991
2 49080  87.9237 196.1228 0001327  79.8868 280.2414 13.17649133107554
ONEWEB-0291             
1 49081U 21075G   23307.44236331 -.00000032  00000+0 -11645-3 0  9994
2 49081  87.9242 196.0450 0001497  85.4416 274.6886 13.17648148108609
ONEWEB-0293             
1 49082U 21075H   23306.93612223 -.00000035  00000+0 -12366-3 0  9990
2 49082  87.9269 196.1414 0001596  82.5122 277.6191 13.17647119107576
ONEWEB-0294             
1 49083U 21075J   23307.16949900 -.00000433  00000+0 -12381-2 0  9990
2 49083  87.9042 180.9889 0000988 111.4757 248.6477 13.12434083110032
ONEWEB-0295             
1 49084U 21075K   23306.71042604  .00000069  00000+0  14332-3 0  9998
2 49084  87.9267 196.1579 0001635  93.1471 266.9847 13.17649033107506
ONEWEB-0296             
1 49085U 21075L   23307.38230295 -.00000293  00000+0 -84853-3 0  9994
2 49085  87.9042 180.9446 0001533 110.4638 249.6655 13.12446414110060
ONEWEB-0297             
1 49086U 21075M   23306.95455659  .00000480  00000+0  12987-2 0  9994
2 49086  87.9054 181.0175 0001890  75.1736 284.9602 13.12440236109627
